[{"OBJECT_NAME":"TIANQI-6","OBJECT_ID":"2020-076D","EPOCH":"2026-03-09T22:50:24.728640","MEAN_MOTION":15.06417552,"ECCENTRICITY":0.00106023,"INCLINATION":34.9994,"RA_OF_ASC_NODE":297.1791,"ARG_OF_PERICENTER":9.4595,"MEAN_ANOMALY":350.6312,"EPHEMERIS_TYPE":0,"CLASSIFICATION_TYPE":"U","NORAD_CAT_ID":46810,"ELEMENT_SET_NO":999,"REV_AT_EPOCH":29360,"BSTAR":0.00037023286,"MEAN_MOTION_DOT":5.552e-5,"MEAN_MOTION_DDOT":0},{"OBJECT_NAME":"STARLINK-2523","OBJECT_ID":"2021-036AG","EPOCH":"2026-03-09T10:37:36.848640","MEAN_MOTION":15.06415148,"ECCENTRICITY":0.00012657,"INCLINATION":53.0541,"RA_OF_ASC_NODE":92.7283,"ARG_OF_PERICENTER":69.0381,"MEAN_ANOMALY":291.0743,"EPHEMERIS_TYPE":0,"CLASSIFICATION_TYPE":"U","NORAD_CAT_ID":48306,"ELEMENT_SET_NO":999,"REV_AT_EPOCH":26813,"BSTAR":0.0003168937,"MEAN_MOTION_DOT":4.444e-5,"MEAN_MOTION_DDOT":0}]
